GSAT0215 (GALILEO 19)   
1 43055U 17079A   26094.10625773 -.00000008  00000+0  00000+0 0  9990
2 43055  55.0980 223.5434 0000751 277.3476  82.5997  1.70474759 51727
GSAT0216 (GALILEO 20)   
1 43056U 17079B   26092.05111583 -.00000021  00000+0  00000+0 0  9997
2 43056  55.0986 223.5998 0002051 297.7683  62.1536  1.70474829 51709
GSAT0217 (GALILEO 21)   
1 43057U 17079C   26094.03164341 -.00000009  00000+0  00000+0 0  9994
2 43057  55.0959 223.5432 0001888 328.5118  31.4322  1.70474766 51720
GSAT0218 (GALILEO 22)   
1 43058U 17079D   26094.25169759 -.00000008  00000+0  00000+0 0  9996
2 43058  55.0970 223.5349 0002545 284.3710  75.5576  1.70474764 51750
GSAT0221 (GALILEO 25)   
1 43564U 18060A   26090.04924982 -.00000099  00000+0  00000+0 0  9999
2 43564  57.1934 343.8925 0004721 315.0021  45.0002  1.70475638 47837
GSAT0222 (GALILEO 26)   
1 43565U 18060B   26093.20172289 -.00000096  00000+0  00000+0 0  9993
2 43565  57.1971 343.8104 0002935 285.5245  74.4895  1.70475247 47935
GSAT0219 (GALILEO 23)   
1 43566U 18060C   26094.59589508 -.00000094  00000+0  00000+0 0  9991
2 43566  57.1954 343.7746 0004031 327.6445  32.3780  1.70475577 47939
GSAT0220 (GALILEO 24)   
1 43567U 18060D   26092.47048715 -.00000097  00000+0  00000+0 0  9990
2 43567  57.1953 343.8319 0004601 318.6748  41.3360  1.70475758 47884
GSAT0223 (GALILEO 27)   
1 49809U 21116A   26094.95822476 -.00000093  00000+0  00000+0 0  9996
2 49809  57.1835 343.6546 0001263 288.2502 249.3367  1.70475996 26933
GSAT0224 (GALILEO 28)   
1 49810U 21116B   26092.44211676 -.00000097  00000+0  00000+0 0  9998
2 49810  57.1862 343.7214 0001081  14.2092 171.7867  1.70475826 26910
GSAT0225 (GALILEO 29)   
1 59598U 24079A   26087.07569868  .00000039  00000+0  00000+0 0  9990
2 59598  55.0678 103.3445 0002740 270.8462 214.7370  1.70474547 11938
GSAT0227 (GALILEO 30)   
1 59600U 24079C   26094.68007228  .00000028  00000+0  00000+0 0  9994
2 59600  55.0670 103.1309 0000783   7.5517 352.4755  1.70474700 12111
GSAT0232 (GALILEO 32)   
1 61182U 24167A   26091.38929149 -.00000024  00000+0  00000+0 0  9996
2 61182  55.2109 223.4183 0004053 206.9701 148.9260  1.70474484  9561
GSAT0226 (GALILEO 31)   
1 61183U 24167B   26094.81846304 -.00000005  00000+0  00000+0 0  9998
2 61183  55.2076 223.3318 0001454 166.2558 225.5556  1.70474512  9601
GSAT0233 (GALILEO 33)   
1 67160U 25302A   26094.91483681  .00000027  00000+0  00000+0 0  9990
2 67160  54.2855 104.2166 0002489 236.9893 310.4133  1.70474884  1878
GSAT0234 (GALILEO 34)   
1 67162U 25302C   26092.85132073  .00000029  00000+0  00000+0 0  9991
2 67162  54.2863 104.2742 0003884 286.4300 254.6427  1.70474820  1899
