[{"OBJECT_NAME":"GSAT0215 (GALILEO 19)","OBJECT_ID":"2017-079A","EPOCH":"2026-04-04T02:33:00.667872","MEAN_MOTION":1.70474759,"ECCENTRICITY":7.514e-5,"INCLINATION":55.098,"RA_OF_ASC_NODE":223.5434,"ARG_OF_PERICENTER":277.3476,"MEAN_ANOMALY":82.5997,"EPHEMERIS_TYPE":0,"CLASSIFICATION_TYPE":"U","NORAD_CAT_ID":43055,"ELEMENT_SET_NO":999,"REV_AT_EPOCH":5172,"BSTAR":0,"MEAN_MOTION_DOT":-8.0e-8,"MEAN_MOTION_DDOT":0},{"OBJECT_NAME":"GSAT0216 (GALILEO 20)","OBJECT_ID":"2017-079B","EPOCH":"2026-04-02T01:13:36.407712","MEAN_MOTION":1.70474829,"ECCENTRICITY":0.00020519,"INCLINATION":55.0986,"RA_OF_ASC_NODE":223.5998,"ARG_OF_PERICENTER":297.7683,"MEAN_ANOMALY":62.1536,"EPHEMERIS_TYPE":0,"CLASSIFICATION_TYPE":"U","NORAD_CAT_ID":43056,"ELEMENT_SET_NO":999,"REV_AT_EPOCH":5170,"BSTAR":0,"MEAN_MOTION_DOT":-2.1e-7,"MEAN_MOTION_DDOT":0},{"OBJECT_NAME":"GSAT0217 (GALILEO 21)","OBJECT_ID":"2017-079C","EPOCH":"2026-04-04T00:45:33.990624","MEAN_MOTION":1.70474766,"ECCENTRICITY":0.00018882,"INCLINATION":55.0959,"RA_OF_ASC_NODE":223.5432,"ARG_OF_PERICENTER":328.5118,"MEAN_ANOMALY":31.4322,"EPHEMERIS_TYPE":0,"CLASSIFICATION_TYPE":"U","NORAD_CAT_ID":43057,"ELEMENT_SET_NO":999,"REV_AT_EPOCH":5172,"BSTAR":0,"MEAN_MOTION_DOT":-9.0e-8,"MEAN_MOTION_DDOT":0},{"OBJECT_NAME":"GSAT0218 (GALILEO 22)","OBJECT_ID":"2017-079D","EPOCH":"2026-04-04T06:02:26.671776","MEAN_MOTION":1.70474764,"ECCENTRICITY":0.00025455,"INCLINATION":55.097,"RA_OF_ASC_NODE":223.5349,"ARG_OF_PERICENTER":284.371,"MEAN_ANOMALY":75.5576,"EPHEMERIS_TYPE":0,"CLASSIFICATION_TYPE":"U","NORAD_CAT_ID":43058,"ELEMENT_SET_NO":999,"REV_AT_EPOCH":5175,"BSTAR":0,"MEAN_MOTION_DOT":-8.0e-8,"MEAN_MOTION_DDOT":0},{"OBJECT_NAME":"GSAT0221 (GALILEO 25)","OBJECT_ID":"2018-060A","EPOCH":"2026-03-31T01:10:55.184448","MEAN_MOTION":1.70475638,"ECCENTRICITY":0.0004721,"INCLINATION":57.1934,"RA_OF_ASC_NODE":343.8925,"ARG_OF_PERICENTER":315.0021,"MEAN_ANOMALY":45.0002,"EPHEMERIS_TYPE":0,"CLASSIFICATION_TYPE":"U","NORAD_CAT_ID":43564,"ELEMENT_SET_NO":999,"REV_AT_EPOCH":4783,"BSTAR":0,"MEAN_MOTION_DOT":-9.9e-7,"MEAN_MOTION_DDOT":0},{"OBJECT_NAME":"GSAT0222 (GALILEO 26)","OBJECT_ID":"2018-060B","EPOCH":"2026-04-03T04:50:28.857696","MEAN_MOTION":1.70475247,"ECCENTRICITY":0.0002935,"INCLINATION":57.1971,"RA_OF_ASC_NODE":343.8104,"ARG_OF_PERICENTER":285.5245,"MEAN_ANOMALY":74.4895,"EPHEMERIS_TYPE":0,"CLASSIFICATION_TYPE":"U","NORAD_CAT_ID":43565,"ELEMENT_SET_NO":999,"REV_AT_EPOCH":4793,"BSTAR":0,"MEAN_MOTION_DOT":-9.6e-7,"MEAN_MOTION_DDOT":0},{"OBJECT_NAME":"GSAT0219 (GALILEO 23)","OBJECT_ID":"2018-060C","EPOCH":"2026-04-04T14:18:05.334912","MEAN_MOTION":1.70475577,"ECCENTRICITY":0.00040319,"INCLINATION":57.1954,"RA_OF_ASC_NODE":343.7746,"ARG_OF_PERICENTER":327.6445,"MEAN_ANOMALY":32.378,"EPHEMERIS_TYPE":0,"CLASSIFICATION_TYPE":"U","NORAD_CAT_ID":43566,"ELEMENT_SET_NO":999,"REV_AT_EPOCH":4793,"BSTAR":0,"MEAN_MOTION_DOT":-9.4e-7,"MEAN_MOTION_DDOT":0},{"OBJECT_NAME":"GSAT0220 (GALILEO 24)","OBJECT_ID":"2018-060D","EPOCH":"2026-04-02T11:17:30.089760","MEAN_MOTION":1.70475758,"ECCENTRICITY":0.00046012,"INCLINATION":57.1953,"RA_OF_ASC_NODE":343.8319,"ARG_OF_PERICENTER":318.6748,"MEAN_ANOMALY":41.336,"EPHEMERIS_TYPE":0,"CLASSIFICATION_TYPE":"U","NORAD_CAT_ID":43567,"ELEMENT_SET_NO":999,"REV_AT_EPOCH":4788,"BSTAR":0,"MEAN_MOTION_DOT":-9.7e-7,"MEAN_MOTION_DDOT":0},{"OBJECT_NAME":"GSAT0223 (GALILEO 27)","OBJECT_ID":"2021-116A","EPOCH":"2026-04-04T22:59:50.619264","MEAN_MOTION":1.70475996,"ECCENTRICITY":0.00012633,"INCLINATION":57.1835,"RA_OF_ASC_NODE":343.6546,"ARG_OF_PERICENTER":288.2502,"MEAN_ANOMALY":249.3367,"EPHEMERIS_TYPE":0,"CLASSIFICATION_TYPE":"U","NORAD_CAT_ID":49809,"ELEMENT_SET_NO":999,"REV_AT_EPOCH":2693,"BSTAR":0,"MEAN_MOTION_DOT":-9.3e-7,"MEAN_MOTION_DDOT":0},{"OBJECT_NAME":"GSAT0224 (GALILEO 28)","OBJECT_ID":"2021-116B","EPOCH":"2026-04-02T10:36:38.888064","MEAN_MOTION":1.70475826,"ECCENTRICITY":0.00010814,"INCLINATION":57.1862,"RA_OF_ASC_NODE":343.7214,"ARG_OF_PERICENTER":14.2092,"MEAN_ANOMALY":171.7867,"EPHEMERIS_TYPE":0,"CLASSIFICATION_TYPE":"U","NORAD_CAT_ID":49810,"ELEMENT_SET_NO":999,"REV_AT_EPOCH":2691,"BSTAR":0,"MEAN_MOTION_DOT":-9.7e-7,"MEAN_MOTION_DDOT":0},{"OBJECT_NAME":"GSAT0225 (GALILEO 29)","OBJECT_ID":"2024-079A","EPOCH":"2026-03-28T01:49:00.365952","MEAN_MOTION":1.70474547,"ECCENTRICITY":0.00027404,"INCLINATION":55.0678,"RA_OF_ASC_NODE":103.3445,"ARG_OF_PERICENTER":270.8462,"MEAN_ANOMALY":214.737,"EPHEMERIS_TYPE":0,"CLASSIFICATION_TYPE":"U","NORAD_CAT_ID":59598,"ELEMENT_SET_NO":999,"REV_AT_EPOCH":1193,"BSTAR":0,"MEAN_MOTION_DOT":3.9e-7,"MEAN_MOTION_DDOT":0},{"OBJECT_NAME":"GSAT0227 (GALILEO 30)","OBJECT_ID":"2024-079C","EPOCH":"2026-04-04T16:19:18.244992","MEAN_MOTION":1.704747,"ECCENTRICITY":7.831e-5,"INCLINATION":55.067,"RA_OF_ASC_NODE":103.1309,"ARG_OF_PERICENTER":7.5517,"MEAN_ANOMALY":352.4755,"EPHEMERIS_TYPE":0,"CLASSIFICATION_TYPE":"U","NORAD_CAT_ID":59600,"ELEMENT_SET_NO":999,"REV_AT_EPOCH":1211,"BSTAR":0,"MEAN_MOTION_DOT":2.8e-7,"MEAN_MOTION_DDOT":0},{"OBJECT_NAME":"GSAT0232 (GALILEO 32)","OBJECT_ID":"2024-167A","EPOCH":"2026-04-01T09:20:34.784736","MEAN_MOTION":1.70474484,"ECCENTRICITY":0.00040532,"INCLINATION":55.2109,"RA_OF_ASC_NODE":223.4183,"ARG_OF_PERICENTER":206.9701,"MEAN_ANOMALY":148.926,"EPHEMERIS_TYPE":0,"CLASSIFICATION_TYPE":"U","NORAD_CAT_ID":61182,"ELEMENT_SET_NO":999,"REV_AT_EPOCH":956,"BSTAR":0,"MEAN_MOTION_DOT":-2.4e-7,"MEAN_MOTION_DDOT":0},{"OBJECT_NAME":"GSAT0226 (GALILEO 31)","OBJECT_ID":"2024-167B","EPOCH":"2026-04-04T19:38:35.206656","MEAN_MOTION":1.70474512,"ECCENTRICITY":0.00014542,"INCLINATION":55.2076,"RA_OF_ASC_NODE":223.3318,"ARG_OF_PERICENTER":166.2558,"MEAN_ANOMALY":225.5556,"EPHEMERIS_TYPE":0,"CLASSIFICATION_TYPE":"U","NORAD_CAT_ID":61183,"ELEMENT_SET_NO":999,"REV_AT_EPOCH":960,"BSTAR":0,"MEAN_MOTION_DOT":-5.0e-8,"MEAN_MOTION_DDOT":0},{"OBJECT_NAME":"GSAT0233 (GALILEO 33)","OBJECT_ID":"2025-302A","EPOCH":"2026-04-04T21:57:21.900384","MEAN_MOTION":1.70474884,"ECCENTRICITY":0.00024897,"INCLINATION":54.2855,"RA_OF_ASC_NODE":104.2166,"ARG_OF_PERICENTER":236.9893,"MEAN_ANOMALY":310.4133,"EPHEMERIS_TYPE":0,"CLASSIFICATION_TYPE":"U","NORAD_CAT_ID":67160,"ELEMENT_SET_NO":999,"REV_AT_EPOCH":187,"BSTAR":0,"MEAN_MOTION_DOT":2.7e-7,"MEAN_MOTION_DDOT":0},{"OBJECT_NAME":"GSAT0234 (GALILEO 34)","OBJECT_ID":"2025-302C","EPOCH":"2026-04-02T20:25:54.111072","MEAN_MOTION":1.7047482,"ECCENTRICITY":0.00038847,"INCLINATION":54.2863,"RA_OF_ASC_NODE":104.2742,"ARG_OF_PERICENTER":286.43,"MEAN_ANOMALY":254.6427,"EPHEMERIS_TYPE":0,"CLASSIFICATION_TYPE":"U","NORAD_CAT_ID":67162,"ELEMENT_SET_NO":999,"REV_AT_EPOCH":189,"BSTAR":0,"MEAN_MOTION_DOT":2.9e-7,"MEAN_MOTION_DDOT":0}]
